ONEWEB-0043             
1 45149U 20008U   24064.92124164  .00000211  00000+0  56763-3 0  9991
2 45149  87.8957 202.0114 0002211 103.9747 256.1626 13.10370501198924
ONEWEB-0044             
1 45150U 20008V   24064.87410727 -.00000567  00000+0 -16612-2 0  9994
2 45150  87.8963 202.0178 0002034 103.5784 256.5570 13.10373307199215
ONEWEB-0045             
1 45151U 20008W   24064.85735529  .00000487  00000+0  13386-2 0  9997
2 45151  87.9030 186.9158 0001592 101.4493 258.6814 13.11419062201052
ONEWEB-0047             
1 45152U 20008X   24064.94233508 -.00000638  00000+0 -18649-2 0  9995
2 45152  87.8960 202.0058 0001744 105.5591 254.5729 13.10373545198943
ONEWEB-0048             
1 45153U 20008Y   24064.93746375 -.00000543  00000+0 -15915-2 0  9994
2 45153  87.8959 202.0203 0001718 103.6947 256.4372 13.10371543198557
ONEWEB-0049             
1 45154U 20008Z   24064.93909984 -.00000647  00000+0 -18902-2 0  9996
2 45154  87.8964 201.9956 0002040 116.7729 243.3607 13.10368309198775
ONEWEB-0051             
1 45155U 20008AA  24064.85572791  .00000479  00000+0  13143-2 0  9993
2 45155  87.9032 186.9573 0001468 107.0262 253.1027 13.11420236201733
ONEWEB-0052             
1 45156U 20008AB  24064.93584190 -.00000478  00000+0 -14068-2 0  9997
2 45156  87.8955 201.9751 0002188 116.6016 243.5336 13.10370117198682
